NORAD_CAT_ID,OBJECT_NAME,OBJECT_TYPE,EPOCH,MEAN_MOTION,ECCENTRICITY,INCLINATION,RA_OF_ASC_NODE,ARG_OF_PERICENTER,MEAN_ANOMALY,BSTAR,MEAN_MOTION_DOT,MEAN_MOTION_DDOT,TLE_LINE0,TLE_LINE1,TLE_LINE2,SEMIMAJOR_AXIS,PERIOD,APOGEE,PERIGEE,DECAYED
49175.0,STARLINK-3087,PAYLOAD,2024-01-15 14:55:44,14.98340505,0.0002431,70.0004,91.3771,266.4018,93.6863,-9.8681e-06,-2.11e-06,0.0,0 STARLINK-3087,1 49175U 21082AX  24015.62204439 -.00000211  00000-0 -98681-5 0  9994,2 49175  70.0004  91.3771 0002431 266.4018  93.6863 14.98340505129022,6950.16,96.106,573.715,570.336,0.0
49175.0,STARLINK-3087,PAYLOAD,2024-01-16 03:44:49,14.98328731,0.0002221,70.0017,90.0325,279.2306,80.8602,4.6077e-05,4.57e-06,0.0,0 STARLINK-3087,1 49175U 21082AX  24016.15613204  .00000457  00000-0  46077-4 0  9998,2 49175  70.0017  90.0325 0002221 279.2306  80.8602 14.98328731129101,6950.197,96.107,573.605,570.518,0.0
49175.0,STARLINK-3087,PAYLOAD,2024-01-16 11:45:30,14.98322476,0.0002529,70.0011,89.1893,276.7481,83.3391,-1.1917e-05,-2.35e-06,0.0,0 STARLINK-3087,1 49175U 21082AX  24016.48993814 -.00000235  00000-0 -11917-4 0  9993,2 49175  70.0011  89.1893 0002529 276.7481  83.3391 14.98322476129159,6950.216,96.107,573.839,570.323,0.0
49175.0,STARLINK-3087,PAYLOAD,2024-01-16 13:21:38,14.98322526,0.0002474,70.0012,89.0208,275.2015,84.8862,-4.7342e-06,-1.49e-06,0.0,0 STARLINK-3087,1 49175U 21082AX  24016.55669808 -.00000149  00000-0 -47342-5 0  9990,2 49175  70.0012  89.0208 0002474 275.2015  84.8862 14.98322526129161,6950.216,96.107,573.8,570.362,0.0
49175.0,STARLINK-3087,PAYLOAD,2024-01-16 14:57:46,14.98324791,0.0002516,70.0011,88.8528,274.4986,85.5886,1.4936e-05,8.5e-07,0.0,0 STARLINK-3087,1 49175U 21082AX  24016.62345633  .00000085  00000-0  14936-4 0  9994,2 49175  70.0011  88.8528 0002516 274.4986  85.5886 14.98324791129178,6950.209,96.107,573.823,570.325,0.0
49175.0,STARLINK-3087,PAYLOAD,2024-01-17 11:47:30,14.98334956,0.0002514,70.0005,86.6638,275.013,85.0743,5.8564e-06,-2.3e-07,0.0,0 STARLINK-3087,1 49175U 21082AX  24017.49132982 -.00000023  00000-0  58564-5 0  9990,2 49175  70.0005  86.6638 0002514 275.0130  85.0743 14.98334956129301,6950.178,96.107,573.79,570.295,0.0
49175.0,STARLINK-3087,PAYLOAD,2024-01-17 14:59:46,14.98333977,0.0002666,70.0006,86.3274,277.6399,82.4457,9.7999e-05,1.077e-05,0.0,0 STARLINK-3087,1 49175U 21082AX  24017.62484803  .00001077  00000-0  97999-4 0  9990,2 49175  70.0006  86.3274 0002666 277.6399  82.4457 14.98333977129325,6950.181,96.107,573.899,570.193,0.0
49175.0,STARLINK-3087,PAYLOAD,2024-01-18 11:49:31,14.9832847,0.0002751,70.0004,84.1392,272.556,87.5284,8.4335e-05,9.13e-06,0.0,0 STARLINK-3087,1 49175U 21082AX  24018.49273094  .00000913  00000-0  84335-4 0  9992,2 49175  70.0004  84.1392 0002751 272.5560  87.5284 14.98328470129459,6950.198,96.107,573.975,570.151,0.0
49175.0,STARLINK-3087,PAYLOAD,2024-01-18 13:25:39,14.98329403,0.0002745,70.0004,83.9709,272.737,87.3475,9.3632e-05,1.024e-05,0.0,0 STARLINK-3087,1 49175U 21082AX  24018.55949020  .00001024  00000-0  93632-4 0  9992,2 49175  70.0004  83.9709 0002745 272.7370  87.3475 14.98329403129460,6950.195,96.107,573.968,570.152,0.0
49175.0,STARLINK-3087,PAYLOAD,2024-01-18 15:01:47,14.98331261,0.0002742,70.0003,83.8022,270.783,89.3015,0.00010913,1.209e-05,0.0,0 STARLINK-3087,1 49175U 21082AX  24018.62624849  .00001209  00000-0  10913-3 0  9994,2 49175  70.0003  83.8022 0002742 270.7830  89.3015 14.98331261129470,6950.189,96.107,573.96,570.148,0.0
49175.0,STARLINK-3087,PAYLOAD,2024-01-19 11:51:32,14.98333678,0.0002591,70.0007,81.6158,255.6706,104.4165,1.3762e-05,7.1e-07,0.0,0 STARLINK-3087,1 49175U 21082AX  24019.49412724  .00000071  00000-0  13762-4 0  9999,2 49175  70.0007  81.6158 0002591 255.6706 104.4165 14.98333678129600,6950.182,96.107,573.847,570.246,0.0
49175.0,STARLINK-3087,PAYLOAD,2024-01-19 13:27:40,14.98333654,0.000259,70.0006,81.4475,256.3858,103.7013,1.1799e-05,4.8e-07,0.0,0 STARLINK-3087,1 49175U 21082AX  24019.56088699  .00000048  00000-0  11799-4 0  9999,2 49175  70.0006  81.4475 0002590 256.3858 103.7013 14.98333654129613,6950.182,96.107,573.847,570.246,0.0
49175.0,STARLINK-3087,PAYLOAD,2024-01-20 11:53:33,14.98326829,0.0002571,70.0006,79.0905,253.5252,106.5624,-7.687e-06,-1.85e-06,0.0,0 STARLINK-3087,1 49175U 21082AX  24020.49553157 -.00000185  00000-0 -76870-5 0  9995,2 49175  70.0006  79.0905 0002571 253.5252 106.5624 14.98326829129750,6950.203,96.107,573.855,570.281,0.0
49175.0,STARLINK-3087,PAYLOAD,2024-01-20 13:29:41,14.9832716,0.0002571,70.0006,78.9221,253.9257,106.162,-4.5266e-06,-1.47e-06,0.0,0 STARLINK-3087,1 49175U 21082AX  24020.56229145 -.00000147  00000-0 -45266-5 0  9993,2 49175  70.0006  78.9221 0002571 253.9257 106.1620 14.98327160129760,6950.202,96.107,573.854,570.28,0.0
49175.0,STARLINK-3087,PAYLOAD,2024-01-21 03:54:54,14.98331904,0.0002616,70.0003,77.4066,253.99,106.0971,7.6693e-05,8.22e-06,0.0,0 STARLINK-3087,1 49175U 21082AX  24021.16312554  .00000822  00000-0  76693-4 0  9992,2 49175  70.0003  77.4066 0002616 253.9900 106.0971 14.98331904129852,6950.187,96.107,573.87,570.234,0.0
49175.0,STARLINK-3087,PAYLOAD,2024-01-21 05:31:01,14.98350005,0.0002673,70.0002,77.2391,257.6696,102.4164,-0.00023418,-2.887e-05,0.0,0 STARLINK-3087,1 49175U 21082AX  24021.22988397 -.00002887  00000-0 -23418-3 0  9994,2 49175  70.0002  77.2391 0002673 257.6696 102.4164 14.98350005129864,6950.131,96.106,573.854,570.138,0.0
49175.0,STARLINK-3087,PAYLOAD,2024-01-21 13:31:42,14.98333547,0.0002663,70.0001,76.397,262.2199,97.8658,5.1375e-05,5.2e-06,0.0,0 STARLINK-3087,1 49175U 21082AX  24021.56368541  .00000520  00000-0  51375-4 0  9998,2 49175  70.0001  76.3970 0002663 262.2199  97.8658 14.98333547129918,6950.182,96.107,573.898,570.196,0.0
49175.0,STARLINK-3087,PAYLOAD,2024-01-22 03:56:55,14.98329206,0.0002727,70.0,74.8824,261.048,99.037,5.8299e-05,6.03e-06,0.0,0 STARLINK-3087,1 49175U 21082AX  24022.16452718  .00000603  00000-0  58299-4 0  9999,2 49175  70.0000  74.8824 0002727 261.0480  99.0370 14.98329206130003,6950.195,96.107,573.956,570.165,0.0
49175.0,STARLINK-3087,PAYLOAD,2024-01-22 07:09:11,14.98329737,0.0002734,70.0,74.5454,260.8161,99.2689,6.3465e-05,6.64e-06,0.0,0 STARLINK-3087,1 49175U 21082AX  24022.29804703  .00000664  00000-0  63465-4 0  9996,2 49175  70.0000  74.5454 0002734 260.8161  99.2689 14.98329737130026,6950.194,96.107,573.959,570.159,0.0
49175.0,STARLINK-3087,PAYLOAD,2024-01-22 13:33:43,14.98331254,0.000271,70.0,73.8722,260.6637,99.4216,7.6148e-05,8.16e-06,0.0,0 STARLINK-3087,1 49175U 21082AX  24022.56508571  .00000816  00000-0  76148-4 0  9991,2 49175  70.0000  73.8722 0002710 260.6637  99.4216 14.98331254130065,6950.189,96.107,573.938,570.171,0.0
49175.0,STARLINK-3087,PAYLOAD,2024-01-23 03:58:55,14.98332917,0.0002598,70.0003,72.357,266.1901,93.8961,2.495e-05,2.05e-06,0.0,0 STARLINK-3087,1 49175U 21082AX  24023.16592536  .00000205  00000-0  24950-4 0  9998,2 49175  70.0003  72.3570 0002598 266.1901  93.8961 14.98332917130154,6950.184,96.107,573.855,570.243,0.0
49175.0,STARLINK-3087,PAYLOAD,2024-01-23 07:11:12,14.98332779,0.0002624,70.0002,72.0204,264.3122,95.7737,2.1629e-05,1.65e-06,0.0,0 STARLINK-3087,1 49175U 21082AX  24023.29944543  .00000165  00000-0  21629-4 0  9996,2 49175  70.0002  72.0204 0002624 264.3122  95.7737 14.98332779130179,6950.184,96.107,573.873,570.226,0.0
49175.0,STARLINK-3087,PAYLOAD,2024-01-23 13:35:44,14.98334349,0.0002583,70.0002,71.3471,265.2328,94.8537,4.0871e-05,3.95e-06,0.0,0 STARLINK-3087,1 49175U 21082AX  24023.56648358  .00000395  00000-0  40871-4 0  9996,2 49175  70.0002  71.3471 0002583 265.2328  94.8537 14.98334349130217,6950.179,96.107,573.84,570.249,0.0
49175.0,STARLINK-3087,PAYLOAD,2024-01-24 12:01:37,14.98324564,0.0002422,70.0004,68.9903,248.806,111.284,-5.244e-05,-7.18e-06,0.0,0 STARLINK-3087,1 49175U 21082AX  24024.50113199 -.00000718  00000-0 -52440-4 0  9997,2 49175  70.0004  68.9903 0002422 248.8060 111.2840 14.98324564130357,6950.21,96.107,573.758,570.391,0.0
49175.0,STARLINK-3087,PAYLOAD,2024-01-24 20:02:17,14.98333159,0.0002806,70.0001,68.1464,258.7664,101.318,-3.5783e-07,-9.7e-07,0.0,0 STARLINK-3087,1 49175U 21082AX  24024.83492485 -.00000097  00000-0 -35783-6 0  9994,2 49175  70.0001  68.1464 0002806 258.7664 101.3180 14.98333159130407,6950.183,96.107,573.998,570.098,0.0
49175.0,STARLINK-3087,PAYLOAD,2024-01-25 12:03:37,14.98334657,0.0002817,69.9997,66.4651,259.3695,100.7147,6.1191e-05,6.37e-06,0.0,0 STARLINK-3087,1 49175U 21082AX  24025.50252237  .00000637  00000-0  61191-4 0  9996,2 49175  69.9997  66.4651 0002817 259.3695 100.7147 14.98334657130501,6950.178,96.107,574.001,570.086,0.0
49175.0,STARLINK-3087,PAYLOAD,2024-01-26 04:04:58,14.98327802,0.0002867,69.9994,64.7812,259.4805,100.6031,7.2369e-05,7.71e-06,0.0,0 STARLINK-3087,1 49175U 21082AX  24026.17012545  .00000771  00000-0  72369-4 0  9994,2 49175  69.9994  64.7812 0002867 259.4805 100.6031 14.98327802130603,6950.2,96.107,574.057,570.072,0.0
49175.0,STARLINK-3087,PAYLOAD,2024-01-26 12:05:39,14.98329825,0.0002823,69.9996,63.94,258.6668,101.4174,9.2507e-05,1.011e-05,0.0,0 STARLINK-3087,1 49175U 21082AX  24026.50392446  .00001011  00000-0  92507-4 0  9996,2 49175  69.9996  63.9400 0002823 258.6668 101.4174 14.98329825130658,6950.193,96.107,574.02,570.096,0.0
49175.0,STARLINK-3087,PAYLOAD,2024-01-27 04:06:59,14.98330106,0.0002621,70.0001,62.2576,256.2005,103.8862,2.9466e-05,2.59e-06,0.0,0 STARLINK-3087,1 49175U 21082AX  24027.17152577  .00000259  00000-0  29466-4 0  9996,2 49175  70.0001  62.2576 0002621 256.2005 103.8862 14.98330106130754,6950.193,96.107,573.879,570.236,0.0
49175.0,STARLINK-3087,PAYLOAD,2024-01-27 12:07:40,14.98331351,0.0002692,70.0,61.4134,273.4609,86.6242,1.3428e-05,6.7e-07,0.0,0 STARLINK-3087,1 49175U 21082AX  24027.50532646  .00000067  00000-0  13428-4 0  9990,2 49175  70.0000  61.4134 0002692 273.4609  86.6242 14.98331351130802,6950.189,96.107,573.925,570.183,0.0
